[{"OBJECT_NAME":"LEMUR-2-FURIAUS","OBJECT_ID":"2017-042R","EPOCH":"2026-03-09T23:04:27.745536","MEAN_MOTION":15.26272951,"ECCENTRICITY":0.00075374,"INCLINATION":97.3753,"RA_OF_ASC_NODE":248.499,"ARG_OF_PERICENTER":55.8686,"MEAN_ANOMALY":304.3266,"EPHEMERIS_TYPE":0,"CLASSIFICATION_TYPE":"U","NORAD_CAT_ID":42840,"ELEMENT_SET_NO":999,"REV_AT_EPOCH":47305,"BSTAR":0.00099966194,"MEAN_MOTION_DOT":0.00025928,"MEAN_MOTION_DDOT":0},{"OBJECT_NAME":"STARLINK-31028","OBJECT_ID":"2023-191J","EPOCH":"2026-03-09T11:30:34.665696","MEAN_MOTION":15.26762907,"ECCENTRICITY":0.00012112,"INCLINATION":43.0013,"RA_OF_ASC_NODE":104.232,"ARG_OF_PERICENTER":272.5081,"MEAN_ANOMALY":87.5632,"EPHEMERIS_TYPE":0,"CLASSIFICATION_TYPE":"U","NORAD_CAT_ID":58516,"ELEMENT_SET_NO":999,"REV_AT_EPOCH":12544,"BSTAR":0.00013746768,"MEAN_MOTION_DOT":3.432e-5,"MEAN_MOTION_DDOT":0}]
